STARLINK-36319          
1 67970U 26038K   26065.25002315 -.01608554  78591-3 -32978-2 0  9990
2 67970  97.2741  75.2690 0001321  81.5004  58.5603 15.99464846  2617
STARLINK-36710          
1 67971U 26038L   26065.25002315 -.01578333  76099-3 -31854-2 0  9995
2 67971  97.2740  75.2720 0001240 105.8765  40.6120 15.99740301  2647
STARLINK-36894          
1 67972U 26038M   26065.25002315 -.01595052  77736-3 -31931-2 0  9998
2 67972  97.2735  75.2732 0001325  77.6733  71.7057 15.99886807  2646
STARLINK-36900          
1 67973U 26038N   26065.25002315 -.01599094  78339-3 -31533-2 0  9997
2 67973  97.2733  75.2755 0001227  86.7210  68.4526 16.00154209  2643
STARLINK-36901          
1 67974U 26038P   26065.25002315 -.01587399  77148-3 -31560-2 0  9990
2 67974  97.2734  75.2741 0001353  72.1523  79.9810 16.00007672  2640
STARLINK-36883          
1 67975U 26038Q   26065.25002315 -.01592615  78233-3 -30447-2 0  9997
2 67975  97.2727  75.2806 0001295  84.0199  82.8917 16.00698719  2640
STARLINK-36880          
1 67976U 26038R   26065.25002315 -.01602690  78793-3 -31355-2 0  9993
2 67976  97.2731  75.2767 0001312  85.7618  72.3665 16.00294041  2640
STARLINK-36904          
1 67977U 26038S   26065.25002315 -.01579304  76892-3 -30441-2 0  9992
2 67977  97.2726  75.2789 0001298  78.8164  85.1565 16.00553319  2648
STARLINK-36364          
1 67978U 26038T   26065.25002315 -.01587690  78073-3 -29795-2 0  9993
2 67978  97.2721  75.2832 0001233  89.8677  83.9321 16.01023375  2644
STARLINK-36359          
1 67979U 26038U   26065.25002315 -.01581409  76945-3 -30755-2 0  9990
2 67979  97.2728  75.2773 0001221  85.7653  74.8418 16.00396611  2643
STARLINK-36882          
1 67980U 26038V   26065.25002315 -.01594584  78569-3 -30186-2 0  9992
2 67980  97.2723  75.2819 0001211  92.9466  77.5794 16.00871964  2648
STARLINK-36874          
1 67981U 26038W   26065.25002315 -.01571144  76654-3 -29309-2 0  9998
2 67981  97.2721  75.2843 0001357  78.8049  97.4121 16.01125311  2649
