CCSDS_OMM_VERS = 2.0
CREATION_DATE  = 
ORIGINATOR     = 

OBJECT_NAME    = STARLINK-36319
OBJECT_ID      = 2026-038K
CENTER_NAME    = EARTH
REF_FRAME      = TEME
TIME_SYSTEM    = UTC
MEAN_ELEMENT_THEORY = SGP/SGP4

EPOCH          = 2026-03-06T06:00:02.000160
MEAN_MOTION    = 15.99464846
ECCENTRICITY   = .00013217
INCLINATION    = 97.2741
RA_OF_ASC_NODE = 75.2690
ARG_OF_PERICENTER = 81.5004
MEAN_ANOMALY   = 58.5603

EPHEMERIS_TYPE = 0
CLASSIFICATION_TYPE = U
NORAD_CAT_ID   = 67970
ELEMENT_SET_NO = 999
REV_AT_EPOCH   = 261
BSTAR          = -.32977912E-2
MEAN_MOTION_DOT = -.1608554E-1
MEAN_MOTION_DDOT = .78591097E-3

CCSDS_OMM_VERS = 2.0
CREATION_DATE  = 
ORIGINATOR     = 

OBJECT_NAME    = STARLINK-36710
OBJECT_ID      = 2026-038L
CENTER_NAME    = EARTH
REF_FRAME      = TEME
TIME_SYSTEM    = UTC
MEAN_ELEMENT_THEORY = SGP/SGP4

EPOCH          = 2026-03-06T06:00:02.000160
MEAN_MOTION    = 15.99740301
ECCENTRICITY   = .00012409
INCLINATION    = 97.2740
RA_OF_ASC_NODE = 75.2720
ARG_OF_PERICENTER = 105.8765
MEAN_ANOMALY   = 40.6120

EPHEMERIS_TYPE = 0
CLASSIFICATION_TYPE = U
NORAD_CAT_ID   = 67971
ELEMENT_SET_NO = 999
REV_AT_EPOCH   = 264
BSTAR          = -.31854482E-2
MEAN_MOTION_DOT = -.1578333E-1
MEAN_MOTION_DDOT = .76099158E-3

CCSDS_OMM_VERS = 2.0
CREATION_DATE  = 
ORIGINATOR     = 

OBJECT_NAME    = STARLINK-36894
OBJECT_ID      = 2026-038M
CENTER_NAME    = EARTH
REF_FRAME      = TEME
TIME_SYSTEM    = UTC
MEAN_ELEMENT_THEORY = SGP/SGP4

EPOCH          = 2026-03-06T06:00:02.000160
MEAN_MOTION    = 15.99886807
ECCENTRICITY   = .00013255
INCLINATION    = 97.2735
RA_OF_ASC_NODE = 75.2732
ARG_OF_PERICENTER = 77.6733
MEAN_ANOMALY   = 71.7057

EPHEMERIS_TYPE = 0
CLASSIFICATION_TYPE = U
NORAD_CAT_ID   = 67972
ELEMENT_SET_NO = 999
REV_AT_EPOCH   = 264
BSTAR          = -.31930847E-2
MEAN_MOTION_DOT = -.1595052E-1
MEAN_MOTION_DDOT = .77735581E-3

CCSDS_OMM_VERS = 2.0
CREATION_DATE  = 
ORIGINATOR     = 

OBJECT_NAME    = STARLINK-36900
OBJECT_ID      = 2026-038N
CENTER_NAME    = EARTH
REF_FRAME      = TEME
TIME_SYSTEM    = UTC
MEAN_ELEMENT_THEORY = SGP/SGP4

EPOCH          = 2026-03-06T06:00:02.000160
MEAN_MOTION    = 16.00154209
ECCENTRICITY   = .00012275
INCLINATION    = 97.2733
RA_OF_ASC_NODE = 75.2755
ARG_OF_PERICENTER = 86.7210
MEAN_ANOMALY   = 68.4526

EPHEMERIS_TYPE = 0
CLASSIFICATION_TYPE = U
NORAD_CAT_ID   = 67973
ELEMENT_SET_NO = 999
REV_AT_EPOCH   = 264
BSTAR          = -.31533225E-2
MEAN_MOTION_DOT = -.1599094E-1
MEAN_MOTION_DDOT = .78339402E-3

CCSDS_OMM_VERS = 2.0
CREATION_DATE  = 
ORIGINATOR     = 

OBJECT_NAME    = STARLINK-36901
OBJECT_ID      = 2026-038P
CENTER_NAME    = EARTH
REF_FRAME      = TEME
TIME_SYSTEM    = UTC
MEAN_ELEMENT_THEORY = SGP/SGP4

EPOCH          = 2026-03-06T06:00:02.000160
MEAN_MOTION    = 16.00007672
ECCENTRICITY   = .00013538
INCLINATION    = 97.2734
RA_OF_ASC_NODE = 75.2741
ARG_OF_PERICENTER = 72.1523
MEAN_ANOMALY   = 79.9810

EPHEMERIS_TYPE = 0
CLASSIFICATION_TYPE = U
NORAD_CAT_ID   = 67974
ELEMENT_SET_NO = 999
REV_AT_EPOCH   = 264
BSTAR          = -.31559636E-2
MEAN_MOTION_DOT = -.1587399E-1
MEAN_MOTION_DDOT = .77147982E-3

CCSDS_OMM_VERS = 2.0
CREATION_DATE  = 
ORIGINATOR     = 

OBJECT_NAME    = STARLINK-36883
OBJECT_ID      = 2026-038Q
CENTER_NAME    = EARTH
REF_FRAME      = TEME
TIME_SYSTEM    = UTC
MEAN_ELEMENT_THEORY = SGP/SGP4

EPOCH          = 2026-03-06T06:00:02.000160
MEAN_MOTION    = 16.00698719
ECCENTRICITY   = .00012954
INCLINATION    = 97.2727
RA_OF_ASC_NODE = 75.2806
ARG_OF_PERICENTER = 84.0199
MEAN_ANOMALY   = 82.8917

EPHEMERIS_TYPE = 0
CLASSIFICATION_TYPE = U
NORAD_CAT_ID   = 67975
ELEMENT_SET_NO = 999
REV_AT_EPOCH   = 264
BSTAR          = -.30447477E-2
MEAN_MOTION_DOT = -.1592615E-1
MEAN_MOTION_DDOT = .78233081E-3

CCSDS_OMM_VERS = 2.0
CREATION_DATE  = 
ORIGINATOR     = 

OBJECT_NAME    = STARLINK-36880
OBJECT_ID      = 2026-038R
CENTER_NAME    = EARTH
REF_FRAME      = TEME
TIME_SYSTEM    = UTC
MEAN_ELEMENT_THEORY = SGP/SGP4

EPOCH          = 2026-03-06T06:00:02.000160
MEAN_MOTION    = 16.00294041
ECCENTRICITY   = .00013121
INCLINATION    = 97.2731
RA_OF_ASC_NODE = 75.2767
ARG_OF_PERICENTER = 85.7618
MEAN_ANOMALY   = 72.3665

EPHEMERIS_TYPE = 0
CLASSIFICATION_TYPE = U
NORAD_CAT_ID   = 67976
ELEMENT_SET_NO = 999
REV_AT_EPOCH   = 264
BSTAR          = -.3135527E-2
MEAN_MOTION_DOT = -.160269E-1
MEAN_MOTION_DDOT = .78793024E-3

CCSDS_OMM_VERS = 2.0
CREATION_DATE  = 
ORIGINATOR     = 

OBJECT_NAME    = STARLINK-36904
OBJECT_ID      = 2026-038S
CENTER_NAME    = EARTH
REF_FRAME      = TEME
TIME_SYSTEM    = UTC
MEAN_ELEMENT_THEORY = SGP/SGP4

EPOCH          = 2026-03-06T06:00:02.000160
MEAN_MOTION    = 16.00553319
ECCENTRICITY   = .0001298
INCLINATION    = 97.2726
RA_OF_ASC_NODE = 75.2789
ARG_OF_PERICENTER = 78.8164
MEAN_ANOMALY   = 85.1565

EPHEMERIS_TYPE = 0
CLASSIFICATION_TYPE = U
NORAD_CAT_ID   = 67977
ELEMENT_SET_NO = 999
REV_AT_EPOCH   = 264
BSTAR          = -.30440892E-2
MEAN_MOTION_DOT = -.1579304E-1
MEAN_MOTION_DDOT = .7689191E-3

CCSDS_OMM_VERS = 2.0
CREATION_DATE  = 
ORIGINATOR     = 

OBJECT_NAME    = STARLINK-36364
OBJECT_ID      = 2026-038T
CENTER_NAME    = EARTH
REF_FRAME      = TEME
TIME_SYSTEM    = UTC
MEAN_ELEMENT_THEORY = SGP/SGP4

EPOCH          = 2026-03-06T06:00:02.000160
MEAN_MOTION    = 16.01023375
ECCENTRICITY   = .0001233
INCLINATION    = 97.2721
RA_OF_ASC_NODE = 75.2832
ARG_OF_PERICENTER = 89.8677
MEAN_ANOMALY   = 83.9321

EPHEMERIS_TYPE = 0
CLASSIFICATION_TYPE = U
NORAD_CAT_ID   = 67978
ELEMENT_SET_NO = 999
REV_AT_EPOCH   = 264
BSTAR          = -.29794993E-2
MEAN_MOTION_DOT = -.158769E-1
MEAN_MOTION_DDOT = .78072963E-3

CCSDS_OMM_VERS = 2.0
CREATION_DATE  = 
ORIGINATOR     = 

OBJECT_NAME    = STARLINK-36359
OBJECT_ID      = 2026-038U
CENTER_NAME    = EARTH
REF_FRAME      = TEME
TIME_SYSTEM    = UTC
MEAN_ELEMENT_THEORY = SGP/SGP4

EPOCH          = 2026-03-06T06:00:02.000160
MEAN_MOTION    = 16.00396611
ECCENTRICITY   = .00012217
INCLINATION    = 97.2728
RA_OF_ASC_NODE = 75.2773
ARG_OF_PERICENTER = 85.7653
MEAN_ANOMALY   = 74.8418

EPHEMERIS_TYPE = 0
CLASSIFICATION_TYPE = U
NORAD_CAT_ID   = 67979
ELEMENT_SET_NO = 999
REV_AT_EPOCH   = 264
BSTAR          = -.30754929E-2
MEAN_MOTION_DOT = -.1581409E-1
MEAN_MOTION_DDOT = .76945188E-3

CCSDS_OMM_VERS = 2.0
CREATION_DATE  = 
ORIGINATOR     = 

OBJECT_NAME    = STARLINK-36882
OBJECT_ID      = 2026-038V
CENTER_NAME    = EARTH
REF_FRAME      = TEME
TIME_SYSTEM    = UTC
MEAN_ELEMENT_THEORY = SGP/SGP4

EPOCH          = 2026-03-06T06:00:02.000160
MEAN_MOTION    = 16.00871964
ECCENTRICITY   = .00012113
INCLINATION    = 97.2723
RA_OF_ASC_NODE = 75.2819
ARG_OF_PERICENTER = 92.9466
MEAN_ANOMALY   = 77.5794

EPHEMERIS_TYPE = 0
CLASSIFICATION_TYPE = U
NORAD_CAT_ID   = 67980
ELEMENT_SET_NO = 999
REV_AT_EPOCH   = 264
BSTAR          = -.30186154E-2
MEAN_MOTION_DOT = -.1594584E-1
MEAN_MOTION_DDOT = .78568976E-3

CCSDS_OMM_VERS = 2.0
CREATION_DATE  = 
ORIGINATOR     = 

OBJECT_NAME    = STARLINK-36874
OBJECT_ID      = 2026-038W
CENTER_NAME    = EARTH
REF_FRAME      = TEME
TIME_SYSTEM    = UTC
MEAN_ELEMENT_THEORY = SGP/SGP4

EPOCH          = 2026-03-06T06:00:02.000160
MEAN_MOTION    = 16.01125311
ECCENTRICITY   = .0001357
INCLINATION    = 97.2721
RA_OF_ASC_NODE = 75.2843
ARG_OF_PERICENTER = 78.8049
MEAN_ANOMALY   = 97.4121

EPHEMERIS_TYPE = 0
CLASSIFICATION_TYPE = U
NORAD_CAT_ID   = 67981
ELEMENT_SET_NO = 999
REV_AT_EPOCH   = 264
BSTAR          = -.2930865E-2
MEAN_MOTION_DOT = -.1571144E-1
MEAN_MOTION_DDOT = .76654279E-3

